ASNARO-2                
1 43152U 18007A   26169.23770508  .00007348  00000+0  32092-3 0  9997
2 43152  97.3970 176.1487 0001927  91.5109 268.6349 15.22408401467574
JILIN-1 07              
1 43159U 18008E   26169.26657507  .00006982  00000+0  20936-3 0  9998
2 43159  97.1766 189.1663 0009812  62.2346 297.9892 15.34737327465167
JILIN-1 08              
1 43160U 18008F   26169.26751846  .00005254  00000+0  16332-3 0  9997
2 43160  97.1799 188.4826 0007995  77.3144 282.8992 15.33723467465119
S-NET D                 
1 43186U 18014G   26169.18760940  .00003626  00000+0  18851-3 0  9997
2 43186  97.5360  73.9721 0008846  27.3828 332.7870 15.16680954458911
S-NET B                 
1 43187U 18014H   26169.19908287  .00003940  00000+0  20465-3 0  9990
2 43187  97.5365  73.9702 0009343  22.2954 337.8684 15.16651341458910
S-NET A                 
1 43188U 18014J   26168.65868170  .00003875  00000+0  20114-3 0  9995
2 43188  97.5378  73.6419 0009280  24.6066 335.5608 15.16685227458839
S-NET C                 
1 43189U 18014K   26169.20296397  .00004098  00000+0  21276-3 0  9992
2 43189  97.5395  74.2579 0010331  14.4475 345.7051 15.16643511457466
PAZ                     
1 43215U 18020A   26169.29263595  .00001455  00000+0  72459-4 0  9996
2 43215  97.4454 176.6627 0001652  86.1582 273.9841 15.19156352461170
GOES 17                 
1 43226U 18022A   26169.13572652 -.00000188  00000+0  00000+0 0  9991
2 43226   0.9404  85.6927 0000470  29.6875 110.3425  1.00269610 30432
LKW-4                   
1 43236U 18025A   26168.97602641  .00034958  00000+0  39613-3 0  9995
2 43236  97.6348 339.9106 0001902 284.0144  76.0901 15.62327960460153
ZHUHAI-1 OVS-02         
1 43440U 18040B   26169.28134987  .00005370  00000+0  21760-3 0  9997
2 43440  97.0384 186.4461 0001835 227.3293 132.7792 15.25036404452881
ZHUHAI-1 OHS-02         
1 43441U 18040C   26169.33140284  .00006054  00000+0  23860-3 0  9994
2 43441  97.0366 193.4338 0008199 215.2894 144.7803 15.25894568114453
GAOFEN-6                
1 43484U 18048A   26169.29089723  .00002342  00000+0  34220-3 0  9992
2 43484  97.9439 232.0243 0011886 162.1664 197.9965 14.76618754433557
LUOJIA-1 01             
1 43485U 18048B   26169.31796319  .00002036  00000+0  23152-3 0  9994
2 43485  97.8107 247.4872 0010364 113.8090 246.4214 14.87290823434387
PAKTES 1A               
1 43529U 18056A   26169.27289959  .00001035  00000+0  90204-4 0  9995
2 43529  98.1303 325.8058 0022045 102.6281 257.7408 14.99108223432082
PRSS-1                  
1 43530U 18056B   26169.27015542  .00000422  00000+0  59693-4 0  9998
2 43530  97.7819 237.1096 0001569  74.6497 285.4890 14.81988752428591
HAIYANG-1C              
1 43609U 18068A   26169.29152413  .00000094  00000+0  48905-4 0  9998
2 43609  98.5191 241.5835 0012117  91.3157 268.9416 14.34179402407241
SSTL S1-4               
1 43618U 18071A   26169.29210963 -.00000159  00000+0 -92989-5 0  9993
2 43618  97.5025  40.8611 0001272 100.7617 259.3749 14.96179123423108
HAIYANG-2B              
1 43655U 18081A   26169.32362601  .00000281  00000+0  31639-3 0  9993
2 43655  99.3277 178.0631 0000351   5.2860 354.8295 13.79307722385089
CFOSAT                  
1 43662U 18083A   26169.28160066  .00002795  00000+0  14732-3 0  9996
2 43662  97.3603 173.7801 0002419  90.1067 270.0443 15.16380331422602
TEN-KOH                 
1 43677U 18084G   26169.05577320  .00001500  00000+0  11650-3 0  9992
2 43677  98.0773   1.4561 0011591 111.6863 248.5596 15.02946081416290
DIWATA-2B               
1 43678U 18084H   26169.23687957  .00001760  00000+0  14492-3 0  9996
2 43678  98.1178   5.4902 0012517 166.7078 193.4477 15.00455353416372
STARS-AO                
1 43679U 18084J   26169.12891104  .00004739  00000+0  24322-3 0  9998
2 43679  98.0495  23.1579 0002963 135.0131 225.1342 15.17061493417612
AUTCUBE 2               
1 43681U 18084K   26169.29058034  .00002518  00000+0  15879-3 0  9996
2 43681  98.0707  15.5235 0009971  46.3231 313.8821 15.10097353417092
METOP-C                 
1 43689U 18087A   26169.26463283  .00000088  00000+0  60239-4 0  9991
2 43689  98.6645 228.8486 0001801 128.1100 232.0240 14.21512426394985
ES'HAIL 2               
1 43700U 18090A   26169.18706521  .00000138  00000+0  00000+0 0  9996
2 43700   0.0171  19.0751 0001670 105.0983 235.3779  1.00271194 27682
MOHAMMED VI-B           
1 43717U 18095A   26169.26071986  .00000386  00000+0  61780-4 0  9990
2 43717  97.9558 241.5713 0001335  96.8952 263.2411 14.77118742408341
HYSIS                   
1 43719U 18096A   26169.29419142  .00000617  00000+0  91355-4 0  9994
2 43719  97.9840 236.0336 0001737  97.8901 262.2507 14.78619273407584
COSMOS 2530 (RODNIK-S *)
1 43751U 18097A   26169.26220845  .00000007  00000+0 -21422-4 0  9990
2 43751  82.5134 221.6136 0020164  37.3644 322.8833 12.42881218342427
