OBJECT_NAME,OBJECT_ID,EPOCH,MEAN_MOTION,ECCENTRICITY,INCLINATION,RA_OF_ASC_NODE,ARG_OF_PERICENTER,MEAN_ANOMALY,EPHEMERIS_TYPE,CLASSIFICATION_TYPE,NORAD_CAT_ID,ELEMENT_SET_NO,REV_AT_EPOCH,BSTAR,MEAN_MOTION_DOT,MEAN_MOTION_DDOT
ASNARO-2,2018-007A,2026-06-18T05:42:17.718912,15.22408401,.00019272,97.3970,176.1487,91.5109,268.6349,0,U,43152,999,46757,.32092494E-3,.7348E-4,0
JILIN-1 07,2018-008E,2026-06-18T06:23:52.086048,15.34737327,.00098122,97.1766,189.1663,62.2346,297.9892,0,U,43159,999,46516,.20936462E-3,.6982E-4,0
JILIN-1 08,2018-008F,2026-06-18T06:25:13.594944,15.33723467,.00079953,97.1799,188.4826,77.3144,282.8992,0,U,43160,999,46511,.16331931E-3,.5254E-4,0
S-NET D,2018-014G,2026-06-18T04:30:09.452160,15.16680954,.00088461,97.5360,73.9721,27.3828,332.7870,0,U,43186,999,45891,.18850587E-3,.3626E-4,0
S-NET B,2018-014H,2026-06-18T04:46:40.759968,15.16651341,.00093431,97.5365,73.9702,22.2954,337.8684,0,U,43187,999,45891,.204654E-3,.394E-4,0
S-NET A,2018-014J,2026-06-17T15:48:30.098880,15.16685227,.00092801,97.5378,73.6419,24.6066,335.5608,0,U,43188,999,45883,.20114302E-3,.3875E-4,0
S-NET C,2018-014K,2026-06-18T04:52:16.087008,15.16643511,.00103312,97.5395,74.2579,14.4475,345.7051,0,U,43189,999,45746,.21276373E-3,.4098E-4,0
PAZ,2018-020A,2026-06-18T07:01:23.746080,15.19156352,.00016522,97.4454,176.6627,86.1582,273.9841,0,U,43215,999,46117,.72459207E-4,.1455E-4,0
GOES 17,2018-022A,2026-06-18T03:15:26.771328,1.00269610,.000047,0.9404,85.6927,29.6875,110.3425,0,U,43226,999,3043,0,-.188E-5,0
LKW-4,2018-025A,2026-06-17T23:25:28.681824,15.62327960,.00019026,97.6348,339.9106,284.0144,76.0901,0,U,43236,999,46015,.39612569E-3,.34958E-3,0
ZHUHAI-1 OVS-02,2018-040B,2026-06-18T06:45:08.628768,15.25036404,.00018358,97.0384,186.4461,227.3293,132.7792,0,U,43440,999,45288,.21759822E-3,.537E-4,0
ZHUHAI-1 OHS-02,2018-040C,2026-06-18T07:57:13.205376,15.25894568,.00081996,97.0366,193.4338,215.2894,144.7803,0,U,43441,999,11445,.23859601E-3,.6054E-4,0
GAOFEN-6,2018-048A,2026-06-18T06:58:53.520672,14.76618754,.00118867,97.9439,232.0243,162.1664,197.9965,0,U,43484,999,43355,.34220076E-3,.2342E-4,0
LUOJIA-1 01,2018-048B,2026-06-18T07:37:52.019616,14.87290823,.0010364,97.8107,247.4872,113.8090,246.4214,0,U,43485,999,43438,.23152261E-3,.2036E-4,0
PAKTES 1A,2018-056A,2026-06-18T06:32:58.524576,14.99108223,.0022045,98.1303,325.8058,102.6281,257.7408,0,U,43529,999,43208,.90204236E-4,.1035E-4,0
PRSS-1,2018-056B,2026-06-18T06:29:01.428288,14.81988752,.00015693,97.7819,237.1096,74.6497,285.4890,0,U,43530,999,42859,.59692821E-4,.422E-5,0
HAIYANG-1C,2018-068A,2026-06-18T06:59:47.684832,14.34179402,.00121175,98.5191,241.5835,91.3157,268.9416,0,U,43609,999,40724,.48905006E-4,.94E-6,0
SSTL S1-4,2018-071A,2026-06-18T07:00:38.272032,14.96179123,.00012728,97.5025,40.8611,100.7617,259.3749,0,U,43618,999,42310,-.9298923E-5,-.159E-5,0
HAIYANG-2B,2018-081A,2026-06-18T07:46:01.287264,13.79307722,.00003511,99.3277,178.0631,5.2860,354.8295,0,U,43655,999,38508,.31639497E-3,.281E-5,0
CFOSAT,2018-083A,2026-06-18T06:45:30.297024,15.16380331,.00024191,97.3603,173.7801,90.1067,270.0443,0,U,43662,999,42260,.14732107E-3,.2795E-4,0
TEN-KOH,2018-084G,2026-06-18T01:20:18.804480,15.02946081,.00115917,98.0773,1.4561,111.6863,248.5596,0,U,43677,999,41629,.11650419E-3,.15E-4,0
DIWATA-2B,2018-084H,2026-06-18T05:41:06.394848,15.00455353,.00125177,98.1178,5.4902,166.7078,193.4477,0,U,43678,999,41637,.14492279E-3,.176E-4,0
STARS-AO,2018-084J,2026-06-18T03:05:37.913856,15.17061493,.00029632,98.0495,23.1579,135.0131,225.1342,0,U,43679,999,41761,.24321965E-3,.4739E-4,0
AUTCUBE 2,2018-084K,2026-06-18T06:58:26.141376,15.10097353,.00099713,98.0707,15.5235,46.3231,313.8821,0,U,43681,999,41709,.15878641E-3,.2518E-4,0
METOP-C,2018-087A,2026-06-18T06:21:04.276512,14.21512426,.00018013,98.6645,228.8486,128.1100,232.0240,0,U,43689,999,39498,.60239395E-4,.88E-6,0
ES'HAIL 2,2018-090A,2026-06-18T04:29:22.434144,1.00271194,.00016703,0.0171,19.0751,105.0983,235.3779,0,U,43700,999,2768,0,.138E-5,0
MOHAMMED VI-B,2018-095A,2026-06-18T06:15:26.195904,14.77118742,.00013358,97.9558,241.5713,96.8952,263.2411,0,U,43717,999,40834,.61780386E-4,.386E-5,0
HYSIS,2018-096A,2026-06-18T07:03:38.138688,14.78619273,.00017374,97.9840,236.0336,97.8901,262.2507,0,U,43719,999,40758,.91355475E-4,.617E-5,0
COSMOS 2530 (RODNIK-S 16),2018-097A,2026-06-18T06:17:34.810080,12.42881218,.00201646,82.5134,221.6136,37.3644,322.8833,0,U,43751,999,34242,-.21421777E-4,.7E-7,0
